ATLAS CENTAUR 2         
1 00694U 63047A   26076.60613966  .00001799  00000+0  20795-3 0  9998
2 00694  30.3522 151.3995 0547505 150.0520 213.2598 14.12096695132748
THOR AGENA D R/B        
1 00733U 64002A   26076.47632179  .00000191  00000+0  85587-4 0  9992
2 00733  99.1220  90.2382 0032104 234.7955 125.0221 14.34024767239417
SL-3 R/B                
1 00877U 64053B   26076.63024526  .00000153  00000+0  53978-4 0  9993
2 00877  65.0771 307.9577 0080035 289.7210  69.5269 14.61374148267958
SL-8 R/B                
1 02802U 67045B   26076.46403718  .00000303  00000+0  91538-4 0  9993
2 02802  74.0134 333.5718 0064522 338.0658  21.7739 14.45629567 90147
SL-8 R/B                
1 03230U 68040B   26076.62906589  .00002768  00000+0  20591-3 0  9994
2 03230  74.0304 297.4711 0023529 118.2988 242.0579 15.03310919 91200
OAO 2                   
1 03597U 68110A   26076.44067349  .00000210  00000+0  61639-4 0  9999
2 03597  34.9924 221.9463 0006231 261.8037  98.1947 14.47312249 20224
ISIS 1                  
1 03669U 69009A   26076.59666509  .00000139  00000+0  82920-4 0  9992
2 03669  88.4528 154.4462 1707885  73.2123 304.8699 11.30416584349425
SERT 2                  
1 04327U 70009A   26076.60049799 -.00000002  00000+0  54291-4 0  9994
2 04327  99.2769  19.2616 0005359 136.5272  36.4171 13.58730607780965
SL-3 R/B                
1 05118U 71028B   26076.53841036  .00033614  00000+0  38512-3 0  9992
2 05118  81.2365  42.3295 0013358 251.1260 108.8546 15.61827938989899
ASTEX 1                 
1 05560U 71089A   26076.61627748  .00000472  00000+0  12011-3 0  9993
2 05560  92.7110 154.3224 0017551  62.4527 297.8460 14.50778379863457
SL-8 R/B                
1 05730U 71119B   26076.58875218  .00007212  00000+0  37717-3 0  9998
2 05730  73.8881 160.9534 0547659 125.9250 239.4020 14.38045910656620
OAO 3 (COPERNICUS)      
1 06153U 72065A   26076.59958256  .00000317  00000+0  69272-4 0  9995
2 06153  35.0049 252.2493 0007147 229.9260 186.3377 14.60004501847357
